SHIELDS 1               
1 43850U 18104B   22320.43573395  .00004204  00000+0  16738-3 0  9999
2 43850  85.0253 311.2919 0016188  69.5987 290.6993 15.24802818217657
STF-1                   
1 43852U 18104D   22320.39532122  .00012561  00000+0  42928-3 0  9994
2 43852  85.0272 311.0685 0015006  79.5509 280.7427 15.30038928217749
ZACUBE-2                
1 43907U 18111AH  22320.81004300  .00012202  00000+0  41424-3 0  9994
2 43907  97.1654 201.7317 0016570 257.4627 167.0459 15.30507684216572
LUME 1                  
1 43908U 18111AJ  22320.19641237  .00011720  00000+0  35853-3 0  9995
2 43908  97.1676 203.3259 0014623 249.7241 110.2431 15.33888251216624
AOBA VELOX-IV           
1 43940U 19003J   22320.65443141  .00036806  00000+0  71960-3 0  9998
2 43940  97.1107 352.7311 0011902 318.7267  41.3083 15.47278451213577
MOVE-IIB                
1 44398U 19038N   22320.59455891  .00020560  00000+0  87059-3 0  9998
2 44398  97.6465 291.8608 0018652 328.3451  31.6651 15.23043082186150
SONATE                  
1 44400U 19038Q   22320.86648154  .00007219  00000+0  37375-3 0  9990
2 44400  97.6584 290.3551 0021958 332.6537  27.3538 15.16322145186016
LUCKY-7                 
1 44406U 19038W   22320.42902344  .00006731  00000+0  33666-3 0  9999
2 44406  97.6581 290.6296 0020688 331.7977  28.2134 15.17587108185996
BEESAT 9                
1 44412U 19038AC  22320.39086958  .00010192  00000+0  47723-3 0  9991
2 44412  97.6548 291.1963 0018017 336.4627  23.5781 15.19785328185745
JAISAT-1                
1 44419U 19038F   22320.39538319  .00010027  00000+0  46362-3 0  9996
2 44419  97.6550 292.1547 0016852 333.6328  26.4047 15.20241856186110
DUCHIFAT-3              
1 44854U 19089C   22320.27281792  .00005969  00000+0  44838-3 0  9997
2 44854  36.9639 279.6111 0007882   5.6128 103.3999 15.02327805160764
EYESAT-NANO             
1 44877U 19092E   22320.44802558  .00012685  00000+0  49205-3 0  9990
2 44877  97.4614 144.1074 0010484 177.5269 182.6023 15.26203299161513
ORBITAL FACTORY 2 (OF-2)
1 45113U 19071C   22320.56398139  .00045106  00000+0  62812-3 0  9992
2 45113  51.6354  26.1713 0011195   9.1124 351.0069 15.56414277156967
M2 PATHFINDER           
1 45727U 20037E   22320.43540302  .00001918  00000+0  19225-3 0  9997
2 45727  97.7409 133.2632 0011551 249.7492 110.2471 14.92487971129496
NETSAT-4                
1 46504U 20068U   22320.48305842  .00003775  00000+0  27418-3 0  9994
2 46504  97.7377 260.1584 0012097 160.8420 199.3231 15.04436629116890
NETSAT-3                
1 46505U 20068V   22320.56947024  .00004039  00000+0  29337-3 0  9994
2 46505  97.7374 260.1375 0011109 170.2202 189.9215 15.04395708116914
NETSAT-1                
1 46506U 20068W   22320.59170489  .00004139  00000+0  30121-3 0  9995
2 46506  97.7368 260.0758 0008660 180.3838 179.7380 15.04329946116918
NETSAT-2                
1 46507U 20068X   22320.60277030  .00003368  00000+0  24605-3 0  9991
2 46507  97.7371 260.0784 0007315 183.7491 176.3687 15.04326839116865
SAI-1 NANOCONNECT-2     
1 47701U 21015C   22320.79509252  .00013848  00000+0  45797-3 0  9994
2 47701  97.4108  37.2351 0009095 272.8364  87.1837 15.31426631 95499
WILDTRACKCUBE-SIMBA     
1 47941U 21022K   22320.82270360  .00005065  00000+0  32757-3 0  9991
2 47941  97.5135 217.0514 0020865 350.9615  77.1863 15.08458902 90954
BEESAT-6                
1 47957U 21022AB  22320.54220203  .00011408  00000+0  68503-3 0  9994
2 47957  97.5112 217.2285 0019424 351.3204 130.8959 15.10911989 90743
SMOG-1                  
1 47964U 21022AJ  22320.68849203  .00008374  00000+0  48332-3 0  9990
2 47964  97.5143 218.7768 0017141 340.2479  19.8085 15.12466455 89875
MMSATS-1                
1 47976U 98067SJ  22320.77676788  .00051054  00000+0  43662-3 0  9996
2 47976  51.6387 275.5705 0003093 106.3408 326.7949 15.68937467 94080
BCCSAT-1                
1 48041U 21022AK  22320.30403947  .00006993  00000+0  41714-3 0  9999
2 48041  97.5148 217.8142 0013998 342.5362  17.5385 15.11378627 89752
BEESAT-5                
1 48083U 21022AM  22320.69652959  .00012251  00000+0  72601-3 0  9999
2 48083  97.5115 217.4111 0019324 351.5548  61.1531 15.11371176 89906
BEESAT-7                
1 48084U 21022AN  22320.71462272  .00012186  00000+0  72736-3 0  9996
2 48084  97.5131 217.4209 0018630 350.5251  68.6776 15.11123279 89498
BEESAT-8                
1 48085U 21022AP  22319.49633804  .00008566  00000+0  52026-3 0  9998
2 48085  97.5103 216.1862 0019739 354.6488 180.2414 15.10572678 89868
LEDSAT                  
1 49069U 21073D   22320.74243903  .00004877  00000+0  30121-3 0  9997
2 49069  97.5099  30.6074 0027431 130.7128 229.6490 15.10030027 68801
HSU-SAT1                
1 53462U 98067UB  22320.37709774  .00052118  00000+0  62872-3 0  9997
2 53462  51.6374 299.3131 0009583 104.7469 255.4587 15.60187729 14942
FUTABA                  
1 53463U 98067UC  22320.39213805  .00067873  00000+0  74989-3 0  9991
2 53463  51.6364 298.6599 0010140 102.5890 257.6239 15.62351324 14952
TUMNANOSAT              
1 53464U 98067UD  22320.21602701  .00087756  00000+0  88573-3 0  9996
2 53464  51.6364 298.9828 0010765 100.3324 259.8885 15.64539473 14936
